[{"OBJECT_NAME":"LEMUR-2-FURIAUS","OBJECT_ID":"2017-042R","EPOCH":"2026-03-02T13:14:44.738880","MEAN_MOTION":15.25814226,"ECCENTRICITY":0.0007686,"INCLINATION":97.3733,"RA_OF_ASC_NODE":241.1889,"ARG_OF_PERICENTER":82.2221,"MEAN_ANOMALY":277.989,"EPHEMERIS_TYPE":0,"CLASSIFICATION_TYPE":"U","NORAD_CAT_ID":42840,"ELEMENT_SET_NO":999,"REV_AT_EPOCH":47192,"BSTAR":0.0010671,"MEAN_MOTION_DOT":0.00027309,"MEAN_MOTION_DDOT":0},{"OBJECT_NAME":"CORVUS BC2","OBJECT_ID":"2017-042X","EPOCH":"2026-03-02T09:59:55.275936","MEAN_MOTION":15.05518435,"ECCENTRICITY":0.00142611,"INCLINATION":97.3917,"RA_OF_ASC_NODE":227.0412,"ARG_OF_PERICENTER":116.3092,"MEAN_ANOMALY":243.9602,"EPHEMERIS_TYPE":0,"CLASSIFICATION_TYPE":"U","NORAD_CAT_ID":42846,"ELEMENT_SET_NO":999,"REV_AT_EPOCH":47099,"BSTAR":0.00040187951,"MEAN_MOTION_DOT":5.737e-5,"MEAN_MOTION_DDOT":0},{"OBJECT_NAME":"CORVUS BC1","OBJECT_ID":"2017-042Y","EPOCH":"2026-03-02T10:10:48.828864","MEAN_MOTION":15.05737969,"ECCENTRICITY":0.00133682,"INCLINATION":97.3952,"RA_OF_ASC_NODE":227.7892,"ARG_OF_PERICENTER":94.2334,"MEAN_ANOMALY":266.0422,"EPHEMERIS_TYPE":0,"CLASSIFICATION_TYPE":"U","NORAD_CAT_ID":42847,"ELEMENT_SET_NO":999,"REV_AT_EPOCH":47102,"BSTAR":0.00029580803,"MEAN_MOTION_DOT":4.23e-5,"MEAN_MOTION_DDOT":0},{"OBJECT_NAME":"VRSS-2","OBJECT_ID":"2017-060A","EPOCH":"2026-03-02T20:23:46.461984","MEAN_MOTION":14.80996771,"ECCENTRICITY":0.0018623,"INCLINATION":97.6671,"RA_OF_ASC_NODE":104.3036,"ARG_OF_PERICENTER":87.8639,"MEAN_ANOMALY":272.4706,"EPHEMERIS_TYPE":0,"CLASSIFICATION_TYPE":"U","NORAD_CAT_ID":42954,"ELEMENT_SET_NO":999,"REV_AT_EPOCH":45271,"BSTAR":7.3775e-5,"MEAN_MOTION_DOT":5.23e-6,"MEAN_MOTION_DDOT":0},{"OBJECT_NAME":"MOHAMMED VI-A","OBJECT_ID":"2017-070A","EPOCH":"2026-03-02T20:32:33.182304","MEAN_MOTION":14.77109976,"ECCENTRICITY":0.000137,"INCLINATION":97.9453,"RA_OF_ASC_NODE":135.7027,"ARG_OF_PERICENTER":96.1423,"MEAN_ANOMALY":263.9944,"EPHEMERIS_TYPE":0,"CLASSIFICATION_TYPE":"U","NORAD_CAT_ID":43005,"ELEMENT_SET_NO":999,"REV_AT_EPOCH":44828,"BSTAR":0.00011822,"MEAN_MOTION_DOT":7.85e-6,"MEAN_MOTION_DDOT":0},{"OBJECT_NAME":"FENGYUN 3D","OBJECT_ID":"2017-072A","EPOCH":"2026-03-02T20:53:26.924928","MEAN_MOTION":14.19711561,"ECCENTRICITY":0.0001883,"INCLINATION":99.0011,"RA_OF_ASC_NODE":34.4341,"ARG_OF_PERICENTER":26.8822,"MEAN_ANOMALY":333.2451,"EPHEMERIS_TYPE":0,"CLASSIFICATION_TYPE":"U","NORAD_CAT_ID":43010,"ELEMENT_SET_NO":999,"REV_AT_EPOCH":42990,"BSTAR":-0.00010745,"MEAN_MOTION_DOT":-2.73e-6,"MEAN_MOTION_DDOT":0},{"OBJECT_NAME":"CZ-4C R/B","OBJECT_ID":"2017-072C","EPOCH":"2026-03-02T18:58:51.362400","MEAN_MOTION":14.58682295,"ECCENTRICITY":0.0123672,"INCLINATION":98.5702,"RA_OF_ASC_NODE":166.3741,"ARG_OF_PERICENTER":119.4432,"MEAN_ANOMALY":241.9175,"EPHEMERIS_TYPE":0,"CLASSIFICATION_TYPE":"U","NORAD_CAT_ID":43012,"ELEMENT_SET_NO":999,"REV_AT_EPOCH":44112,"BSTAR":0.00015512,"MEAN_MOTION_DOT":7.48e-6,"MEAN_MOTION_DDOT":0},{"OBJECT_NAME":"NOAA 20 (JPSS-1)","OBJECT_ID":"2017-073A","EPOCH":"2026-03-02T18:43:00.884640","MEAN_MOTION":14.19533889,"ECCENTRICITY":8.93e-5,"INCLINATION":98.7684,"RA_OF_ASC_NODE":2.2361,"ARG_OF_PERICENTER":145.9894,"MEAN_ANOMALY":214.134,"EPHEMERIS_TYPE":0,"CLASSIFICATION_TYPE":"U","NORAD_CAT_ID":43013,"ELEMENT_SET_NO":999,"REV_AT_EPOCH":42937,"BSTAR":6.1486e-5,"MEAN_MOTION_DOT":8.6e-7,"MEAN_MOTION_DDOT":0},{"OBJECT_NAME":"MAKERSAT 0","OBJECT_ID":"2017-073D","EPOCH":"2026-03-02T15:04:00.543648","MEAN_MOTION":15.27392648,"ECCENTRICITY":0.0116359,"INCLINATION":97.4802,"RA_OF_ASC_NODE":303.5842,"ARG_OF_PERICENTER":291.2517,"MEAN_ANOMALY":67.6327,"EPHEMERIS_TYPE":0,"CLASSIFICATION_TYPE":"U","NORAD_CAT_ID":43016,"ELEMENT_SET_NO":999,"REV_AT_EPOCH":45017,"BSTAR":0.00081739,"MEAN_MOTION_DOT":0.00026779,"MEAN_MOTION_DDOT":0},{"OBJECT_NAME":"RADFXSAT (FOX-1B)","OBJECT_ID":"2017-073E","EPOCH":"2026-03-02T18:33:35.042400","MEAN_MOTION":15.10689956,"ECCENTRICITY":0.0155581,"INCLINATION":97.4875,"RA_OF_ASC_NODE":291.2158,"ARG_OF_PERICENTER":336.0986,"MEAN_ANOMALY":23.3072,"EPHEMERIS_TYPE":0,"CLASSIFICATION_TYPE":"U","NORAD_CAT_ID":43017,"ELEMENT_SET_NO":999,"REV_AT_EPOCH":44931,"BSTAR":0.00057237,"MEAN_MOTION_DOT":0.00012615,"MEAN_MOTION_DDOT":0},{"OBJECT_NAME":"JILIN-1 04","OBJECT_ID":"2017-074A","EPOCH":"2026-03-02T18:58:00.540192","MEAN_MOTION":15.39458294,"ECCENTRICITY":0.0003988,"INCLINATION":97.4773,"RA_OF_ASC_NODE":168.8668,"ARG_OF_PERICENTER":202.5528,"MEAN_ANOMALY":157.5543,"EPHEMERIS_TYPE":0,"CLASSIFICATION_TYPE":"U","NORAD_CAT_ID":43022,"ELEMENT_SET_NO":999,"REV_AT_EPOCH":45788,"BSTAR":0.00044605,"MEAN_MOTION_DOT":0.00017421,"MEAN_MOTION_DDOT":0},{"OBJECT_NAME":"JILIN-1 05","OBJECT_ID":"2017-074B","EPOCH":"2026-03-02T19:07:04.253664","MEAN_MOTION":15.32325793,"ECCENTRICITY":0.0004134,"INCLINATION":97.479,"RA_OF_ASC_NODE":166.7031,"ARG_OF_PERICENTER":237.2136,"MEAN_ANOMALY":122.8708,"EPHEMERIS_TYPE":0,"CLASSIFICATION_TYPE":"U","NORAD_CAT_ID":43023,"ELEMENT_SET_NO":999,"REV_AT_EPOCH":45770,"BSTAR":0.00025727,"MEAN_MOTION_DOT":7.952e-5,"MEAN_MOTION_DDOT":0},{"OBJECT_NAME":"JILIN-1 06","OBJECT_ID":"2017-074C","EPOCH":"2026-03-02T18:23:23.690688","MEAN_MOTION":15.32310392,"ECCENTRICITY":0.0005765,"INCLINATION":97.4728,"RA_OF_ASC_NODE":163.7852,"ARG_OF_PERICENTER":253.8202,"MEAN_ANOMALY":106.2405,"EPHEMERIS_TYPE":0,"CLASSIFICATION_TYPE":"U","NORAD_CAT_ID":43024,"ELEMENT_SET_NO":999,"REV_AT_EPOCH":45753,"BSTAR":0.00026739,"MEAN_MOTION_DOT":8.266e-5,"MEAN_MOTION_DDOT":0},{"OBJECT_NAME":"IRIDIUM 116","OBJECT_ID":"2017-083C","EPOCH":"2026-03-02T19:37:55.163712","MEAN_MOTION":14.34217814,"ECCENTRICITY":0.0002035,"INCLINATION":86.4013,"RA_OF_ASC_NODE":6.4495,"ARG_OF_PERICENTER":94.1374,"MEAN_ANOMALY":266.0054,"EPHEMERIS_TYPE":0,"CLASSIFICATION_TYPE":"U","NORAD_CAT_ID":43072,"ELEMENT_SET_NO":999,"REV_AT_EPOCH":42892,"BSTAR":9.7197e-6,"MEAN_MOTION_DOT":4.7e-7,"MEAN_MOTION_DDOT":0},{"OBJECT_NAME":"IRIDIUM 130","OBJECT_ID":"2017-083D","EPOCH":"2026-03-02T18:52:15.078432","MEAN_MOTION":14.3421837,"ECCENTRICITY":0.0001911,"INCLINATION":86.402,"RA_OF_ASC_NODE":6.7277,"ARG_OF_PERICENTER":88.0373,"MEAN_ANOMALY":272.1042,"EPHEMERIS_TYPE":0,"CLASSIFICATION_TYPE":"U","NORAD_CAT_ID":43073,"ELEMENT_SET_NO":999,"REV_AT_EPOCH":42886,"BSTAR":5.8173e-5,"MEAN_MOTION_DOT":1.83e-6,"MEAN_MOTION_DDOT":0},{"OBJECT_NAME":"LKW-2","OBJECT_ID":"2017-084A","EPOCH":"2026-03-02T20:07:22.772928","MEAN_MOTION":15.24801251,"ECCENTRICITY":4.55e-5,"INCLINATION":97.135,"RA_OF_ASC_NODE":106.6357,"ARG_OF_PERICENTER":196.599,"MEAN_ANOMALY":163.5233,"EPHEMERIS_TYPE":0,"CLASSIFICATION_TYPE":"U","NORAD_CAT_ID":43080,"ELEMENT_SET_NO":999,"REV_AT_EPOCH":45547,"BSTAR":0.00024623,"MEAN_MOTION_DOT":6.041e-5,"MEAN_MOTION_DDOT":0},{"OBJECT_NAME":"SUPERVIEW-1 03","OBJECT_ID":"2018-002A","EPOCH":"2026-03-02T19:47:23.278272","MEAN_MOTION":15.35564495,"ECCENTRICITY":0.0050794,"INCLINATION":97.3183,"RA_OF_ASC_NODE":147.0885,"ARG_OF_PERICENTER":202.3698,"MEAN_ANOMALY":157.5331,"EPHEMERIS_TYPE":0,"CLASSIFICATION_TYPE":"U","NORAD_CAT_ID":43099,"ELEMENT_SET_NO":999,"REV_AT_EPOCH":45202,"BSTAR":0.00061487,"MEAN_MOTION_DOT":0.00022132,"MEAN_MOTION_DDOT":0}]
