LEMUR-2-FURIAUS         
1 42840U 17042R   26061.55190670  .00027309  00000+0  10671-2 0  9997
2 42840  97.3733 241.1889 0007686  82.2221 277.9890 15.25814226471920
CORVUS BC2              
1 42846U 17042X   26061.41661199  .00005737  00000+0  40188-3 0  9995
2 42846  97.3917 227.0412 0014261 116.3092 243.9602 15.05518435470998
CORVUS BC1              
1 42847U 17042Y   26061.42417626  .00004230  00000+0  29581-3 0  9992
2 42847  97.3952 227.7892 0013368  94.2334 266.0422 15.05737969471023
VRSS-2                  
1 42954U 17060A   26061.84984331  .00000523  00000+0  73775-4 0  9995
2 42954  97.6671 104.3036 0018623  87.8639 272.4706 14.80996771452719
MOHAMMED VI-A           
1 43005U 17070A   26061.85593961  .00000785  00000+0  11822-3 0  9994
2 43005  97.9453 135.7027 0001370  96.1423 263.9944 14.77109976448286
FENGYUN 3D              
1 43010U 17072A   26061.87045052 -.00000273  00000+0 -10745-3 0  9994
2 43010  99.0011  34.4341 0001883  26.8822 333.2451 14.19711561429908
CZ-4C R/B               
1 43012U 17072C   26061.79087225  .00000748  00000+0  15512-3 0  9997
2 43012  98.5702 166.3741 0123672 119.4432 241.9175 14.58682295441127
NOAA 20 (JPSS-1)        
1 43013U 17073A   26061.77987135  .00000086  00000+0  61486-4 0  9993
2 43013  98.7684   2.2361 0000893 145.9894 214.1340 14.19533889429370
MAKERSAT 0              
1 43016U 17073D   26061.62778407  .00026779  00000+0  81739-3 0  9999
2 43016  97.4802 303.5842 0116359 291.2517  67.6327 15.27392648450178
RADFXSAT (FOX-1B)       
1 43017U 17073E   26061.77332225  .00012615  00000+0  57237-3 0  9990
2 43017  97.4875 291.2158 0155581 336.0986  23.3072 15.10689956449313
JILIN-1 04              
1 43022U 17074A   26061.79028403  .00017421  00000+0  44605-3 0  9994
2 43022  97.4773 168.8668 0003988 202.5528 157.5543 15.39458294457887
JILIN-1 05              
1 43023U 17074B   26061.79657701  .00007952  00000+0  25727-3 0  9996
2 43023  97.4790 166.7031 0004134 237.2136 122.8708 15.32325793457701
JILIN-1 06              
1 43024U 17074C   26061.76624642  .00008266  00000+0  26739-3 0  9995
2 43024  97.4728 163.7852 0005765 253.8202 106.2405 15.32310392457530
IRIDIUM 116             
1 43072U 17083C   26061.81799958  .00000047  00000+0  97197-5 0  9994
2 43072  86.4013   6.4495 0002035  94.1374 266.0054 14.34217814428929
IRIDIUM 130             
1 43073U 17083D   26061.78628563  .00000183  00000+0  58173-4 0  9995
2 43073  86.4020   6.7277 0001911  88.0373 272.1042 14.34218370428868
LKW-2                   
1 43080U 17084A   26061.83845802  .00006041  00000+0  24623-3 0  9998
2 43080  97.1350 106.6357 0000455 196.5990 163.5233 15.24801251455470
SUPERVIEW-1 03          
1 43099U 18002A   26061.82457498  .00022132  00000+0  61487-3 0  9996
2 43099  97.3183 147.0885 0050794 202.3698 157.5331 15.35564495452021
